# From MPEC 2021-F20
406P/Gibbs,e,1.2133,11.4842,352.4191,3.576438,0.1457230,0.54205566,106.9768,09/20.0/2022,2000,g 17.0,4.0
# From MPEC 2021-F20
407P/PANSTARRS-Fuls,e,4.8752,80.4838,93.4230,3.473732,0.1522333,0.38110355,146.6559,09/20.0/2022,2000,g 14.0,4.0
# From MPEC 2022-S20
408P/Novichonok-Gerke,e,19.3569,189.4412,226.4547,4.744166,0.0953815,0.26909768,358.5656,09/20.0/2022,2000,g 11.0,4.0
# From MPEC 2022-ED3
409P/LONEOS-Hill,e,17.1198,143.6681,15.1065,6.040465,0.0663894,0.70965866,39.8314,09/20.0/2022,2000,g 14.0,4.0
# From MPEC 2022-M21
410P/NEAT-LINEAR,e,9.3929,139.9790,313.0966,6.639624,0.0576088,0.51101296,26.1179,09/20.0/2022,2000,g 12.5,4.0
# From MPEC 2021-J28
411P/Christensen,e,12.3810,77.6563,46.6200,5.813986,0.0703061,0.58081642,42.4434,09/20.0/2022,2000,g 13.5,4.0
# From MPEC 2021-F20
412P/WISE,e,8.9314,0.8443,155.9453,3.109959,0.1797099,0.47930807,117.5125,09/20.0/2022,2000,g 17.0,4.0
# From MPEC 2022-OB6
413P/Larson,e,15.9795,38.9955,186.2061,3.714101,0.1376967,0.42333153,58.7266,09/20.0/2022,2000,g 14.0,4.0
# From MPEC 2021-BE3
414P/STEREO,e,23.3905,257.7938,210.7097,2.793610,0.2110840,0.81168149,127.2151,09/20.0/2022,2000,g 19.0,4.0
# From MPEC 2022-J42
415P/Tenagra,e,31.7920,160.2931,346.0859,4.113182,0.1181510,0.19465233,68.8552,09/20.0/2022,2000,g 12.0,4.0
# From MPEC 2021-L04
416P/Scotti,e,3.3613,355.8084,134.4425,4.010658,0.1227102,0.45432384,71.3784,09/20.0/2022,2000,g 15.5,4.0
# From MPEC 2021-W31
417P/NEOWISE,e,8.1216,111.0916,129.5455,3.346888,0.1609690,0.55625171,82.9458,09/20.0/2022,2000,g 16.5,4.0
# From MPEC 2022-R68
418P/LINEAR,e,5.7938,277.6239,307.2047,5.086243,0.0859228,0.66495914,28.9852,09/20.0/2022,2000,g 13.0,4.0
# From MPEC 2022-QD9
419P/PANSTARRS,e,2.8030,40.3890,187.5426,3.520755,0.1491937,0.27751091,48.8481,09/20.0/2022,2000,g 12.5,4.0
# From MPEC 2022-OB6
420P/Hill,e,14.5048,173.9508,157.0421,5.539594,0.0755940,0.49668535,9.1223,09/20.0/2022,2000,g 11.5,4.0
# From MPEC 2021-W31
421P/McNaught,e,10.0781,55.3438,259.8574,5.076002,0.0861829,0.67536986,51.9038,09/20.0/2022,2000,g 14.0,4.0
# From MPEC 2022-RD9
422P/Christensen,e,39.5676,36.0236,305.1117,6.314263,0.0621184,0.50830165,15.4964,09/20.0/2022,2000,g 11.0,4.0
# From MPEC 2022-A21
423P/Lemmon,e,8.3461,33.2986,80.2883,6.168364,0.0643353,0.12136681,23.5885,09/20.0/2022,2000,g  8.0,4.0
# From MPEC 2022-CN4
424P/LaSagra,e,8.6851,51.1729,312.4988,4.415363,0.1062318,0.69129417,34.3505,09/20.0/2022,2000,g 17.0,4.0
# From MPEC 2022-OB6
425P/Kowalski,e,16.4203,210.0801,200.7802,6.334942,0.0618145,0.54372709,22.5259,09/20.0/2022,2000,g 12.0,4.0
# From MPEC 2022-P82
426P/PANSTARRS,e,17.7698,280.5161,119.0275,3.187343,0.1732052,0.16142296,297.8886,09/20.0/2022,2000,g 13.5,4.0
# From MPEC 2022-J42
428P/Gibbs,e,8.5136,299.3399,36.8428,3.485071,0.1514910,0.51941779,74.7363,09/20.0/2022,2000,g 15.0,4.0
# From MPEC 2022-H04
429P/LINEAR-Hill,e,7.5215,322.0747,75.5554,3.551550,0.1472574,0.49137214,38.4077,09/20.0/2022,2000,g 15.5,4.0
# From MPEC 2022-L66
430P/Scotti,e,4.4752,54.6724,94.4788,3.105969,0.1800563,0.49954783,52.5425,09/20.0/2022,2000,g 16.5,4.0
# From MPEC 2022-ED3
431P/Scotti,e,22.3920,202.8443,199.8745,3.472990,0.1522821,0.47773547,33.2888,09/20.0/2022,2000,g 14.0,4.0
# From MPEC 2021-U31
432P/PANSTARRS,e,10.0693,239.1427,105.2433,3.035393,0.1863725,0.24193081,71.8767,09/20.0/2022,2000,g 17.0,4.0
# From MPEC 2022-OB6
434P/Tenagra,e,6.3387,288.9679,128.0945,4.129375,0.1174567,0.27452873,38.6398,09/20.0/2022,2000,g 13.0,4.0
# From MPEC 2021-W31
435P/PANSTARRS,e,18.8815,98.5505,244.1730,3.018657,0.1879245,0.31864490,78.8371,09/20.0/2022,2000,g 17.0,4.0
# From MPEC 2022-M88
436P/Garradd,e,20.2094,87.1895,282.6088,5.929650,0.0682591,0.66981828,19.4867,09/20.0/2022,2000,g 14.5,4.0
# From MPEC 2021-Y10
437P/PANSTARRS,e,3.6893,245.8667,206.7258,4.559980,0.1012184,0.25434439,3.2904,09/20.0/2022,2000,g 13.0,4.0
# From MPEC 2021-W47
438P/Christensen,e,8.2858,260.1492,58.9824,3.847940,0.1305755,0.41555246,117.2191,09/20.0/2022,2000,g 14.5,4.0
# From MPEC 2022-C56
439P/LINEAR,e,7.1142,56.4103,342.0269,3.488603,0.1512609,0.46957512,58.9669,09/20.0/2022,2000,g 13.5,4.0
# From MPEC 2022-L66
440P/Kobayashi,e,12.3390,328.8803,183.3105,8.583689,0.0391916,0.76046160,6.8220,09/20.0/2022,2000,g 15.5,4.0
# From MPEC 2022-OB6
441P/PANSTARRS,e,2.5746,143.6165,178.7701,4.134646,0.1172321,0.19551818,232.8768,09/20.0/2022,2000,g 13.5,4.0
# From MPEC 2022-S20
442P/McNaught,e,6.0583,32.0173,310.9781,4.978791,0.0887193,0.53351128,2.8260,09/20.0/2022,2000,g 13.5,4.0
# From MPEC 2022-OB6
443P/PANSTARRS-Christensen,e,19.8862,108.9446,145.1093,4.128057,0.1175129,0.28388175,357.6320,09/20.0/2022,2000,g 13.5,4.0
# From MPEC 2022-OB6
444P/WISE-PANSTARRS,e,22.1249,89.4047,170.8994,3.427806,0.1553029,0.57023209,11.1216,09/20.0/2022,2000,g 17.0,4.0
# From MPEC 2022-S20
445P/Lemmon-PANSTARRS,e,1.0884,126.5670,213.7466,4.060720,0.1204480,0.41434807,3.9920,09/20.0/2022,2000,g 15.0,4.0
# From MPEC 2022-S20
446P/McNaught,e,16.6145,336.4122,344.7437,4.574482,0.1007375,0.64720522,11.4206,09/20.0/2022,2000,g 16.5,4.0
# From MPEC 2022-OB6
447P/Sheppard-Tholen,e,7.4330,302.6890,97.5954,5.644519,0.0734960,0.18031395,2.3845,09/20.0/2022,2000,g 12.0,4.0
# From MPEC 2022-RD9
448P/PANSTARRS,e,12.1517,161.7574,218.7391,3.636629,0.1421201,0.41922760,1.9051,09/20.0/2022,2000,g 16.0,4.0
# From MPC107687
1I/`Oumuamua,h,09/09.4886/2017,122.6778,24.5997,241.6845,1.199252,0.255240,2000,23.0,2.0
# From MPEC 2020-K19
2I/Borisov,h,12/08.5549/2019,44.0527,308.1480,209.1251,3.356636,2.006548,2000,11.0,4.0
